CSS (TIANHE)            
1 48274U 21035A   24208.27315138  .00018124  00000+0  22940-3 0  9997
2 48274  41.4681 204.5133 0002182 308.5101  51.5542 15.59068275185217
